{
"type": "FeatureCollection",
"name": "aoi",
"crs": { "type": "name", "properties": { "name": "urn:ogc:def:crs:OGC:1.3:CRS84" } },
"features": [
{ "type": "Feature", "properties": { "unit": "Bolzano" }, "geometry": { "type": "Polygon", "coordinates": [ [ [ 12.185165564700105, 47.091456945988234 ], [ 12.224035242133587, 47.083173081908306 ], [ 12.240294332149549, 47.068611286739419 ], [ 12.237829409119728, 47.065634682989689 ], [ 12.216762768912277, 47.057782746103783 ], [ 12.215760706478529, 47.044509389333143 ], [ 12.204865339941668, 47.027202733951924 ], [ 12.179266241834929, 47.024672627553272 ], [ 12.168092980141017, 47.021103729354223 ], [ 12.153219889598057, 47.023359573118796 ], [ 12.141911445332406, 47.021605278742214 ], [ 12.127146320588135, 47.013536646981208 ], [ 12.121633412570505, 47.007537609017959 ], [ 12.128772797281723, 46.995357829616751 ], [ 12.129238792552973, 46.984927935591323 ], [ 12.136632546488441, 46.982993068885079 ], [ 12.137901140107859, 46.98004229865753 ], [ 12.13150820981793, 46.96294703302754 ], [ 12.14076789512575, 46.955979356665537 ], [ 12.15737287499355, 46.950740794352356 ], [ 12.168205328016203, 46.937889130645104 ], [ 12.167405249786226, 46.932835416239435 ], [ 12.148685473669266, 46.915937721202759 ], [ 12.144510621681844, 46.914104126133587 ], [ 12.159833455032887, 46.908632927717491 ], [ 12.172287145783443, 46.908814660140195 ], [ 12.188902172314121, 46.906296034709129 ], [ 12.197460558600396, 46.898640940310102 ], [ 12.200357438549037, 46.888530574921319 ], [ 12.216230315869849, 46.873869371751532 ], [ 12.227968759077896, 46.878966423327689 ], [ 12.236111438986601, 46.88639430446139 ], [ 12.236492375019944, 46.888814218222308 ], [ 12.240642039386238, 46.890356446737087 ], [ 12.267529226366801, 46.886594393940271 ], [ 12.274476761122438, 46.883241202201106 ], [ 12.277256153021231, 46.880286113730911 ], [ 12.275556730690683, 46.872864885779968 ], [ 12.290361238202085, 46.861711942707196 ], [ 12.290994159028507, 46.852284297683639 ], [ 12.295593900944656, 46.845937355109889 ], [ 12.306691437093372, 46.840351981995944 ], [ 12.304807947749154, 46.832850968277782 ], [ 12.28315748780326, 46.814634808551652 ], [ 12.291940746840513, 46.803468239881042 ], [ 12.288254943722198, 46.795847812596136 ], [ 12.28054745210309, 46.791375733752226 ], [ 12.28384311848437, 46.782902116748566 ], [ 12.310968881079823, 46.784464245834791 ], [ 12.357406556191171, 46.774663342396238 ], [ 12.368439184129228, 46.743016785302245 ], [ 12.377918323703421, 46.72193051878665 ], [ 12.383063724340367, 46.717116275097268 ], [ 12.44276519535625, 46.688221680873546 ], [ 12.474539623402134, 46.686619958188984 ], [ 12.477595181695758, 46.679819817497219 ], [ 12.437516045413757, 46.668924620313447 ], [ 12.403967908839849, 46.643024961046812 ], [ 12.391079070565571, 46.641612056756408 ], [ 12.383029788327997, 46.643711400135835 ], [ 12.379773553393605, 46.6429073895644 ], [ 12.378395259942485, 46.636685605625999 ], [ 12.389929657703142, 46.627392550091614 ], [ 12.388788464845598, 46.624469821552609 ], [ 12.385163328166872, 46.622781718087808 ], [ 12.371909850870901, 46.620243973056056 ], [ 12.359431910477232, 46.619742931844421 ], [ 12.347969218068847, 46.623985218958772 ], [ 12.34143032831318, 46.629952088531567 ], [ 12.316855157468812, 46.62981847275141 ], [ 12.315100779461098, 46.623811852228762 ], [ 12.305503735139901, 46.619173449399149 ], [ 12.286066742483852, 46.617911448803738 ], [ 12.272669158012235, 46.620892089134486 ], [ 12.263400376843698, 46.627999547242439 ], [ 12.260203270046361, 46.628711767251033 ], [ 12.23218173086717, 46.614045505297277 ], [ 12.212421965482179, 46.608960232388895 ], [ 12.20452026979043, 46.60017542035996 ], [ 12.192239221977617, 46.594563709462996 ], [ 12.19447447880672, 46.604746834254222 ], [ 12.194425893499089, 46.619515119810153 ], [ 12.186451234445411, 46.620795637270298 ], [ 12.171328320935338, 46.634101423673194 ], [ 12.163130607309091, 46.636245598637309 ], [ 12.153942031607102, 46.634679642935872 ], [ 12.140833211134842, 46.637281603417598 ], [ 12.131627904663185, 46.64409222144711 ], [ 12.127155396345826, 46.64466331540256 ], [ 12.11281290492464, 46.651946050214946 ], [ 12.10915555647602, 46.655624971519849 ], [ 12.075506749578039, 46.674429836954111 ], [ 12.06826443160964, 46.675146454751996 ], [ 12.069564026086534, 46.66410597974906 ], [ 12.067149681134225, 46.65395225248043 ], [ 12.071565557888377, 46.646087349539705 ], [ 12.071370457872193, 46.641601123552292 ], [ 12.0692324781394, 46.640074551252674 ], [ 12.065663776137859, 46.626991025932618 ], [ 12.060359686075836, 46.620087595122719 ], [ 12.05174961201117, 46.614541639407165 ], [ 12.046623601159906, 46.608081503349936 ], [ 12.049772304687142, 46.593759387403274 ], [ 12.046693548722592, 46.584724452031935 ], [ 12.034175702165246, 46.576786407836501 ], [ 12.027919663442349, 46.565258169184958 ], [ 11.998418884010851, 46.532855710212615 ], [ 11.987560564908224, 46.545299182038768 ], [ 11.967811296859988, 46.544571723450829 ], [ 11.949534260363345, 46.53923084758884 ], [ 11.945494686303205, 46.529416944665428 ], [ 11.93388747702731, 46.527897490523813 ], [ 11.911883946852067, 46.532960250903947 ], [ 11.888028692093116, 46.522843478483132 ], [ 11.851350811250693, 46.517836389415713 ], [ 11.828312394011085, 46.508913940617965 ], [ 11.82528917640335, 46.51276888193054 ], [ 11.825489038595958, 46.521785156240895 ], [ 11.811184710025563, 46.532764283990495 ], [ 11.800762726724658, 46.527665268308546 ], [ 11.792980659918168, 46.521295509886542 ], [ 11.790637934682167, 46.514999846600276 ], [ 11.78159088248526, 46.510673784854099 ], [ 11.744226007771047, 46.50503462318656 ], [ 11.716640410603365, 46.512939265356138 ], [ 11.689044630102964, 46.503133725582039 ], [ 11.664834632416516, 46.497527539575316 ], [ 11.646949803535176, 46.498444632980984 ], [ 11.639058984171957, 46.501818301433815 ], [ 11.632614846718727, 46.498693959630401 ], [ 11.633483200842994, 46.494287476745065 ], [ 11.642349778353774, 46.490459433792154 ], [ 11.649950875640208, 46.482832876685208 ], [ 11.642970973922065, 46.47526935174416 ], [ 11.626742241389048, 46.471985160620491 ], [ 11.625993390261424, 46.460888752571641 ], [ 11.6219968816175, 46.456046793534618 ], [ 11.617829482118331, 46.444134566667017 ], [ 11.619817837150105, 46.429359103613571 ], [ 11.601726912511989, 46.399410144650943 ], [ 11.600208667686648, 46.388153139424787 ], [ 11.592128076032708, 46.383689705741453 ], [ 11.563667145913806, 46.380853393536562 ], [ 11.558672807309868, 46.367635080755996 ], [ 11.557107261737423, 46.351126242370903 ], [ 11.549528311979143, 46.345115033270439 ], [ 11.545877235289998, 46.34555194209112 ], [ 11.535259008598647, 46.352761385430007 ], [ 11.512003983006313, 46.358645496447913 ], [ 11.477128330522341, 46.363677072585524 ], [ 11.479555657087342, 46.356127350589404 ], [ 11.472787713322045, 46.35181946937108 ], [ 11.464986723383875, 46.351617616968809 ], [ 11.462068057181281, 46.349953366464966 ], [ 11.454472853704761, 46.334726145184014 ], [ 11.42422639626805, 46.326495041794026 ], [ 11.407264950176664, 46.324793990674301 ], [ 11.402902975410438, 46.322925362052615 ], [ 11.396272761861693, 46.309726394570355 ], [ 11.384890727267939, 46.302440373624336 ], [ 11.378139316664756, 46.300970051463061 ], [ 11.360746364502646, 46.3008446815588 ], [ 11.358820084187766, 46.296159900274532 ], [ 11.381284706878054, 46.291157378219189 ], [ 11.394673276270469, 46.273768041894378 ], [ 11.397623886199133, 46.264832201510977 ], [ 11.389610435020304, 46.262291001475198 ], [ 11.377255783166396, 46.261963690243206 ], [ 11.358816462750465, 46.265658974566662 ], [ 11.356203277464257, 46.27641384180496 ], [ 11.34192619764395, 46.281846096253702 ], [ 11.336320726662436, 46.289630408176343 ], [ 11.339520002480205, 46.296531675438288 ], [ 11.332142058269531, 46.296414002626868 ], [ 11.322699860206633, 46.29126066495504 ], [ 11.311229687491409, 46.280936444038822 ], [ 11.313724340517078, 46.279339919712513 ], [ 11.315851212729392, 46.273272522894658 ], [ 11.305616482608775, 46.258767082985003 ], [ 11.296730108371444, 46.260378910291735 ], [ 11.286404642051275, 46.258864405460677 ], [ 11.275163979807415, 46.251900749047614 ], [ 11.263433869723093, 46.241652983884613 ], [ 11.239643500394713, 46.228435383769657 ], [ 11.213751755753702, 46.221624311740094 ], [ 11.205158781118092, 46.220635219590577 ], [ 11.20159219471163, 46.222888681323518 ], [ 11.18265118525157, 46.226448187932114 ], [ 11.175401349540694, 46.23204505259892 ], [ 11.172415051318447, 46.238446993385629 ], [ 11.17646390171223, 46.238971290645075 ], [ 11.180671413592306, 46.243173684096362 ], [ 11.183588206187533, 46.251288782165602 ], [ 11.188242220293622, 46.252755702609441 ], [ 11.189819744440189, 46.249113002048112 ], [ 11.197250713725438, 46.247234668289494 ], [ 11.200724267500284, 46.254417240495947 ], [ 11.195071569044266, 46.258197234224419 ], [ 11.174280370960432, 46.259402103249698 ], [ 11.165937128148894, 46.262904750819899 ], [ 11.155864208570197, 46.271700617104742 ], [ 11.149970824306179, 46.279803170804016 ], [ 11.140671836259273, 46.282757414999757 ], [ 11.14429618824963, 46.288362249733467 ], [ 11.157404626849711, 46.289317071737152 ], [ 11.162818848598263, 46.29142407748482 ], [ 11.178452232283355, 46.306818544945479 ], [ 11.190483902070657, 46.327545241736573 ], [ 11.197404203758049, 46.332098094841662 ], [ 11.203490372454747, 46.342654191335427 ], [ 11.201257447647976, 46.349113709692631 ], [ 11.192852381604881, 46.355696948851296 ], [ 11.191648815559494, 46.359941043775017 ], [ 11.193166905378565, 46.364578432206876 ], [ 11.197116770051336, 46.3650016206457 ], [ 11.202836051767431, 46.369666839919439 ], [ 11.203589055012278, 46.378394490118886 ], [ 11.214251714291548, 46.398346153660398 ], [ 11.214973026592045, 46.403897976931724 ], [ 11.205631534374646, 46.425957164243684 ], [ 11.215716954283875, 46.435405706788778 ], [ 11.217406723226077, 46.44337716415594 ], [ 11.21357163034115, 46.450324578690669 ], [ 11.216658381805805, 46.456095797154731 ], [ 11.219095948364535, 46.457195992875278 ], [ 11.220421326065683, 46.462048200896163 ], [ 11.217855291754647, 46.472857367151128 ], [ 11.212390198755051, 46.478911694725539 ], [ 11.210506876858615, 46.48994372230591 ], [ 11.206155587217136, 46.496960522025546 ], [ 11.190328284908338, 46.506175961529046 ], [ 11.18502056375025, 46.506685280853119 ], [ 11.178606239055837, 46.498771134376376 ], [ 11.172890078790886, 46.497358121654997 ], [ 11.149128932303768, 46.485599820856073 ], [ 11.130741349524255, 46.482096574937081 ], [ 11.113759522784276, 46.495439542066826 ], [ 11.104075947366555, 46.496216162193953 ], [ 11.089447390139195, 46.501847879491244 ], [ 11.083352180086976, 46.530214945472913 ], [ 11.076591729280878, 46.52916603997835 ], [ 11.054855800857926, 46.516307942010243 ], [ 11.044092695698575, 46.516815295729792 ], [ 11.035352924431463, 46.513438991500301 ], [ 11.046822862761509, 46.508117478748467 ], [ 11.061851094840845, 46.486675941362179 ], [ 11.074500253681217, 46.452621215615238 ], [ 11.076274780581672, 46.445920111110688 ], [ 11.074853607411947, 46.442346924806543 ], [ 11.072821779377495, 46.441494752534254 ], [ 11.067551739833551, 46.443109208550965 ], [ 11.061392693973845, 46.447262704873673 ], [ 11.054566527426918, 46.449501713300492 ], [ 11.048777154574699, 46.449014933396541 ], [ 11.047310223544414, 46.446403043664809 ], [ 11.042083319743975, 46.446659717418463 ], [ 11.031076864640731, 46.459624328401155 ], [ 11.015857321712547, 46.467986253442227 ], [ 11.005858805049883, 46.476804061218317 ], [ 10.988561601372249, 46.483450484541621 ], [ 10.975747491370962, 46.484025344310268 ], [ 10.963752949550331, 46.480163886194866 ], [ 10.956563705658548, 46.470440958671624 ], [ 10.935736943879473, 46.46520704951633 ], [ 10.930919011193264, 46.458340624457087 ], [ 10.932212670816631, 46.45355660785139 ], [ 10.913044286443688, 46.443998422430127 ], [ 10.892223004764366, 46.444650917831275 ], [ 10.887158752780236, 46.446921583695641 ], [ 10.884884530200909, 46.450052672864331 ], [ 10.868798193668677, 46.442011946381669 ], [ 10.865796311587728, 46.438260968699574 ], [ 10.861401517778784, 46.436169513947512 ], [ 10.854975120410217, 46.437091880317958 ], [ 10.851111897400589, 46.439250005769445 ], [ 10.835067861094197, 46.438841735264731 ], [ 10.822239640207441, 46.441800858726815 ], [ 10.800380528513614, 46.442966142163897 ], [ 10.789552406014971, 46.453809890916695 ], [ 10.77852593918797, 46.472287463129859 ], [ 10.766199613866407, 46.484613327728447 ], [ 10.759977240869208, 46.486434072607238 ], [ 10.743333230366138, 46.484223124967961 ], [ 10.716709002060714, 46.462072614293305 ], [ 10.700896444066148, 46.458664032904807 ], [ 10.685181346802173, 46.451790563147703 ], [ 10.664834727809634, 46.451499730655271 ], [ 10.638106990440564, 46.445507614800135 ], [ 10.628531838730968, 46.446562470632884 ], [ 10.62183400234232, 46.447963637705627 ], [ 10.599837946643634, 46.468821484669746 ], [ 10.576129487143456, 46.474266783901903 ], [ 10.562273632562029, 46.481780833746924 ], [ 10.555013091916399, 46.489032320594795 ], [ 10.542878117689789, 46.492134478122374 ], [ 10.496995003573184, 46.497364039690844 ], [ 10.486528591094658, 46.495274072256137 ], [ 10.484530688587572, 46.493600809931387 ], [ 10.477785650724716, 46.49521932174752 ], [ 10.457940462003688, 46.51058963997697 ], [ 10.453182087566654, 46.532049854206718 ], [ 10.462100452613388, 46.541189045724913 ], [ 10.472520285151832, 46.543740410585649 ], [ 10.475426649733084, 46.560248858268125 ], [ 10.474297879278053, 46.564214240135684 ], [ 10.484148499999003, 46.578301693054925 ], [ 10.486756773115717, 46.608002365762552 ], [ 10.49151779479795, 46.615195725519335 ], [ 10.480668904586311, 46.62065817577264 ], [ 10.460590362439026, 46.634325584248799 ], [ 10.446267546457305, 46.640955702121211 ], [ 10.409607425312981, 46.634987702738933 ], [ 10.401607708320988, 46.637047888193813 ], [ 10.39997673020593, 46.638462779756985 ], [ 10.401727660094219, 46.641186175826391 ], [ 10.400046244878462, 46.645778495978227 ], [ 10.393079853508334, 46.654979993410834 ], [ 10.392166331194369, 46.670434147725402 ], [ 10.385767490496329, 46.680942161902792 ], [ 10.387617539968467, 46.687444305543622 ], [ 10.405816216789146, 46.70487442652486 ], [ 10.411531869496251, 46.706086462844198 ], [ 10.415562758543503, 46.709024451997259 ], [ 10.417348784359982, 46.719369608996409 ], [ 10.401966487768748, 46.734365102629937 ], [ 10.430083238400588, 46.749279495045876 ], [ 10.442105015574036, 46.752857262398948 ], [ 10.443928935242143, 46.761091126241617 ], [ 10.44204671273954, 46.769871177154947 ], [ 10.439203759937433, 46.774942070685569 ], [ 10.425088691120573, 46.788860616910377 ], [ 10.429462249927251, 46.795754432235341 ], [ 10.43961035151899, 46.797655598956467 ], [ 10.448812699678609, 46.802286559346989 ], [ 10.455860708656211, 46.813477651012498 ], [ 10.45857891427336, 46.827589807925172 ], [ 10.468457227770891, 46.84688374235278 ], [ 10.469683334643605, 46.85455903788295 ], [ 10.478354274184728, 46.858711726558589 ], [ 10.481583411910583, 46.858062524420468 ], [ 10.495598821301602, 46.848768555974921 ], [ 10.500043619773498, 46.847643983435731 ], [ 10.525489019883544, 46.846259228033958 ], [ 10.552630285486924, 46.849781860965713 ], [ 10.556310068775279, 46.846874630712179 ], [ 10.550206870123599, 46.840037075688599 ], [ 10.553648830346544, 46.839616930907503 ], [ 10.570506475188074, 46.842446556885555 ], [ 10.600565063066419, 46.857787715222202 ], [ 10.623696503245107, 46.86400703354289 ], [ 10.645386873064972, 46.865368335528117 ], [ 10.655826219925677, 46.868470979062842 ], [ 10.663011514772657, 46.87424326847264 ], [ 10.667357611052262, 46.875681725908187 ], [ 10.675552251022962, 46.870028704833537 ], [ 10.688856238031672, 46.867646338008761 ], [ 10.696940948626956, 46.862675050171241 ], [ 10.693909808411359, 46.8568355767474 ], [ 10.694549955807945, 46.852164495940137 ], [ 10.702238663044977, 46.848198708301311 ], [ 10.711059097711738, 46.846869230061685 ], [ 10.716370467234075, 46.844360860870708 ], [ 10.721186776574607, 46.839172510627535 ], [ 10.725969340005392, 46.837453608267985 ], [ 10.756282322461072, 46.831358823637295 ], [ 10.763362482940556, 46.82327206238849 ], [ 10.762846121951664, 46.821166951731279 ], [ 10.753147486761371, 46.81495168105176 ], [ 10.745814128942245, 46.805149210062979 ], [ 10.726249477219222, 46.796498076595334 ], [ 10.73049412568211, 46.787907092169661 ], [ 10.759438394179073, 46.785751289294971 ], [ 10.772204379887826, 46.789572476462268 ], [ 10.786356704501149, 46.796376386657101 ], [ 10.796005511700757, 46.791185699076088 ], [ 10.815939825850089, 46.77531113286507 ], [ 10.825724097490626, 46.773865685979366 ], [ 10.829746025288562, 46.775788618083155 ], [ 10.832076410943081, 46.780470358149827 ], [ 10.840297365501861, 46.781648972862989 ], [ 10.851963276440094, 46.774387211405198 ], [ 10.86587085703666, 46.772648638216019 ], [ 10.871726700896225, 46.765515737543538 ], [ 10.883195547587366, 46.763109578667624 ], [ 10.889600603280254, 46.763935406140632 ], [ 10.89906024254419, 46.769034435431877 ], [ 10.908352619573165, 46.769734577209924 ], [ 10.918019797393239, 46.774774752708851 ], [ 10.929974494302343, 46.773453279526073 ], [ 10.953100698967553, 46.774690574226128 ], [ 10.970801125119706, 46.772325283499512 ], [ 10.984085571212807, 46.768320395656296 ], [ 10.993633579699228, 46.767109755155538 ], [ 11.024800634287663, 46.770221356783864 ], [ 11.035201774041129, 46.790371041170992 ], [ 11.042430546049847, 46.799570125603687 ], [ 11.041911866202831, 46.803385858525203 ], [ 11.072634001480411, 46.81868354130566 ], [ 11.083452723811813, 46.822219919404837 ], [ 11.07803911832516, 46.833725109281424 ], [ 11.072136732843621, 46.840362946783429 ], [ 11.072493785004392, 46.849619595821885 ], [ 11.07472055217433, 46.85766495123891 ], [ 11.088441764084143, 46.877786567073578 ], [ 11.10034191881202, 46.890112811331207 ], [ 11.094982281450381, 46.907480729478259 ], [ 11.095882529830062, 46.911934203021687 ], [ 11.098029493315492, 46.91414287235159 ], [ 11.107809746880744, 46.915969985874405 ], [ 11.109975545459845, 46.924947353655803 ], [ 11.119977355338335, 46.93049459021212 ], [ 11.130290593818648, 46.92821569407382 ], [ 11.14061052971538, 46.928329095649239 ], [ 11.165194822997105, 46.940713068388476 ], [ 11.168335219263374, 46.944658286464175 ], [ 11.163158588230006, 46.951116767955909 ], [ 11.165301653644583, 46.965349878123035 ], [ 11.176127105808456, 46.962531410756853 ], [ 11.190380665430141, 46.969994498436009 ], [ 11.202460032195328, 46.968363144805188 ], [ 11.204502609400164, 46.965396998693009 ], [ 11.240442623695849, 46.969785699115789 ], [ 11.258528444221508, 46.977570046574485 ], [ 11.286456939941708, 46.984174147325234 ], [ 11.299382358927023, 46.983897440556696 ], [ 11.311431796999917, 46.987092436303264 ], [ 11.319305886920601, 46.99242719067442 ], [ 11.335218065473635, 46.986587056469695 ], [ 11.342214679570533, 46.98759148593868 ], [ 11.347463865161652, 46.990242217252778 ], [ 11.358286494924792, 46.990361686160981 ], [ 11.372897435611133, 46.980839883678669 ], [ 11.384244273403782, 46.970360302668269 ], [ 11.401148037106358, 46.964960753369859 ], [ 11.405841459484094, 46.965194843996862 ], [ 11.425140531296307, 46.968994977589311 ], [ 11.436661956327518, 46.974365824474532 ], [ 11.44271427209763, 46.978313819524097 ], [ 11.444498050918948, 46.98299556066911 ], [ 11.452896399082034, 46.99210767066927 ], [ 11.461304389946219, 46.992314352650475 ], [ 11.467113107909228, 46.994371376228735 ], [ 11.471115195496848, 47.003693004221219 ], [ 11.479315863089004, 47.010909403912279 ], [ 11.498740853791613, 47.009559993630894 ], [ 11.527154994713316, 46.994937564410279 ], [ 11.532720819883824, 46.991399254814624 ], [ 11.533607999390288, 46.988153341867076 ], [ 11.544229697880978, 46.986756756936018 ], [ 11.575258138200578, 46.994864077748623 ], [ 11.581050997516897, 46.997383884928276 ], [ 11.580790883276716, 47.001488969626642 ], [ 11.588852371608036, 47.004654648467735 ], [ 11.611777783886749, 47.011234225603367 ], [ 11.624362662925622, 47.012174721823953 ], [ 11.628090651100401, 47.011673469027215 ], [ 11.635165187699815, 47.00359302868339 ], [ 11.663344011747467, 46.992997433510034 ], [ 11.694008199888632, 46.994033328126847 ], [ 11.710599057572566, 46.992993549086222 ], [ 11.729556691156478, 46.971992572881476 ], [ 11.747168158030416, 46.968902717557185 ], [ 11.765573179002653, 46.974109287642584 ], [ 11.769512775944019, 46.981480808743754 ], [ 11.781313203834934, 46.991503491472166 ], [ 11.808963991868044, 46.990175538900182 ], [ 11.831451581725693, 46.992397600783228 ], [ 11.855707057309912, 47.003560586954556 ], [ 11.861859905807226, 47.008906631455524 ], [ 11.886217577027598, 47.016195967080385 ], [ 11.915132731286363, 47.031454267865541 ], [ 11.932787267808669, 47.037767496796363 ], [ 11.944439466092792, 47.035033867955448 ], [ 11.958924167159259, 47.042426809078954 ], [ 11.970841230374827, 47.043688434606317 ], [ 11.978281077602624, 47.049754203566799 ], [ 12.020061021655398, 47.046760173047829 ], [ 12.030013496967962, 47.049961879885423 ], [ 12.03531511076581, 47.057913589556399 ], [ 12.042548786875258, 47.060982191511656 ], [ 12.074682937027605, 47.059263741074915 ], [ 12.084547903204278, 47.070103706664653 ], [ 12.092982727405726, 47.076283711596616 ], [ 12.097130878496809, 47.07753494292087 ], [ 12.103733169145443, 47.077954516059187 ], [ 12.120107381266116, 47.073778856651842 ], [ 12.135538241100891, 47.079701749944739 ], [ 12.148987379170725, 47.079737385144668 ], [ 12.16101246289433, 47.081588210717456 ], [ 12.185165564700105, 47.091456945988234 ] ] ] } },
{ "type": "Feature", "properties": { "unit": "Trento" }, "geometry": { "type": "Polygon", "coordinates": [ [ [ 11.825489038595958, 46.521785156240895 ], [ 11.82528917640335, 46.51276888193054 ], [ 11.828312394011085, 46.508913940617965 ], [ 11.819216243884973, 46.501007774858614 ], [ 11.814352315703282, 46.494138577711666 ], [ 11.81039285656129, 46.4848654085487 ], [ 11.813178632140252, 46.478170926347509 ], [ 11.823509423740527, 46.475826108691486 ], [ 11.843808149647687, 46.475863430913648 ], [ 11.877732745374697, 46.471364757088558 ], [ 11.886828824605171, 46.464743859384562 ], [ 11.888130602461134, 46.441775500550463 ], [ 11.870882786414116, 46.433214486066781 ], [ 11.850290218832246, 46.434159748868709 ], [ 11.838223186094201, 46.41523302549777 ], [ 11.841978842247876, 46.411648377986729 ], [ 11.832326379905126, 46.38759197604768 ], [ 11.835343389062318, 46.365920090241083 ], [ 11.830891895682484, 46.366932466991237 ], [ 11.822299669597992, 46.37492985351831 ], [ 11.814945164229533, 46.371240988387434 ], [ 11.813472448206385, 46.367600326143247 ], [ 11.80446111144909, 46.365115206156091 ], [ 11.790946272611476, 46.366663132770817 ], [ 11.782871739460854, 46.364317779816375 ], [ 11.774400097093519, 46.358215656195142 ], [ 11.77983754004989, 46.351043313062995 ], [ 11.799982833619376, 46.344229432749046 ], [ 11.802787900903919, 46.334322884433128 ], [ 11.820355142438101, 46.328472491555445 ], [ 11.831891161450791, 46.322661438730954 ], [ 11.832491617445076, 46.31240424318824 ], [ 11.838805140293614, 46.307657399278874 ], [ 11.826261275387683, 46.284970525956666 ], [ 11.835181422792239, 46.274117540365353 ], [ 11.840847491807969, 46.27007760051908 ], [ 11.853587525959046, 46.270876359787088 ], [ 11.88524794929762, 46.278808757467665 ], [ 11.888359036188481, 46.272512057165514 ], [ 11.887348534819861, 46.264414479846792 ], [ 11.884942234459336, 46.260734231061392 ], [ 11.891228353524973, 46.253164921603279 ], [ 11.894747395739904, 46.250936259796624 ], [ 11.900404828538711, 46.254090655816505 ], [ 11.912619058761841, 46.252675152077074 ], [ 11.921333967196512, 46.247899547958951 ], [ 11.927364782549779, 46.2485281891407 ], [ 11.918105595820535, 46.238309778950494 ], [ 11.90956945036165, 46.224427559874727 ], [ 11.924239310921406, 46.217169382263116 ], [ 11.927765345130371, 46.209048176802845 ], [ 11.939358748877964, 46.198820412219575 ], [ 11.962440718737328, 46.199129159838819 ], [ 11.962356551299543, 46.188413007136752 ], [ 11.95577285367551, 46.18381986819027 ], [ 11.951124015140504, 46.176122586300984 ], [ 11.950825393949039, 46.170113715403303 ], [ 11.937418807123436, 46.173831016402865 ], [ 11.928366940572142, 46.172682505377338 ], [ 11.918323077432349, 46.15527148815741 ], [ 11.919492509152475, 46.148551771094183 ], [ 11.907264710332605, 46.140149126671908 ], [ 11.901768609350819, 46.130590137426324 ], [ 11.893531674549523, 46.12128798361082 ], [ 11.884545833824109, 46.117255867920754 ], [ 11.875232245036806, 46.117234057606204 ], [ 11.837287093771126, 46.111198487768121 ], [ 11.823461348698842, 46.107661981784531 ], [ 11.814846301289043, 46.103441389260986 ], [ 11.777158336199902, 46.10317662954732 ], [ 11.758691755194706, 46.095601201173722 ], [ 11.755626364197816, 46.096870759714477 ], [ 11.749585818514957, 46.104680961162167 ], [ 11.73863763194292, 46.104795371193468 ], [ 11.718315407010236, 46.103319034254625 ], [ 11.706799365550657, 46.094340097961457 ], [ 11.691107346272387, 46.094990716816255 ], [ 11.685289241546513, 46.093568913060025 ], [ 11.682292337222902, 46.08754198959182 ], [ 11.686463030650899, 46.067002774422633 ], [ 11.697413150857814, 46.059593176181174 ], [ 11.704308964275205, 46.05224081968116 ], [ 11.705484470084762, 46.046754361923298 ], [ 11.700224749873744, 46.044593786967305 ], [ 11.677298047180447, 46.044253317835405 ], [ 11.666183818384974, 46.036214031626677 ], [ 11.673037643199411, 46.029488687337498 ], [ 11.678739649806101, 46.028366353355125 ], [ 11.678040325434619, 46.024056882211831 ], [ 11.669113449771508, 46.017697496831765 ], [ 11.689624096436717, 45.988510341648684 ], [ 11.683985337071006, 45.983767689603177 ], [ 11.685023420794277, 45.969219085759448 ], [ 11.676084949590283, 45.965742641080737 ], [ 11.666545430892246, 45.964102643759134 ], [ 11.649964175515148, 45.96479154008874 ], [ 11.62760840837584, 45.960640915020385 ], [ 11.630679129080123, 45.969379133778702 ], [ 11.621040413436431, 45.971466408775449 ], [ 11.614576964463856, 45.967391747187762 ], [ 11.600317541348334, 45.971346786235529 ], [ 11.58759202461227, 45.968997073000281 ], [ 11.577230061767603, 46.006520280160501 ], [ 11.57002846953918, 46.006495006317259 ], [ 11.552326915137353, 46.011668521229105 ], [ 11.533722710571757, 46.012138635472837 ], [ 11.501012281260952, 46.01089377481771 ], [ 11.49347960682776, 46.009451059089166 ], [ 11.489680516848285, 46.00782432971652 ], [ 11.483980368923509, 46.001382339334938 ], [ 11.472748416255467, 45.997790166998712 ], [ 11.44666384183682, 45.980922873381736 ], [ 11.400149731073283, 45.98010181508819 ], [ 11.378493164212685, 45.984050441702252 ], [ 11.37373991073995, 45.983502831561722 ], [ 11.372415417138011, 45.973232206182466 ], [ 11.377914407395895, 45.957169600298933 ], [ 11.382686791099921, 45.952640786561467 ], [ 11.382043755535937, 45.94450986500307 ], [ 11.380062433778731, 45.942844796389238 ], [ 11.36156753339225, 45.942977306216278 ], [ 11.357236952983461, 45.928642560922952 ], [ 11.353590793689595, 45.923993397258165 ], [ 11.345034538938672, 45.920944207826189 ], [ 11.350084027286925, 45.914501033999855 ], [ 11.349314925580186, 45.90953164823199 ], [ 11.34554080677329, 45.909102514029115 ], [ 11.336753902402572, 45.914483418160636 ], [ 11.324871784197381, 45.917391567933251 ], [ 11.312905942777709, 45.926835259550593 ], [ 11.305193271187894, 45.92690611546076 ], [ 11.300686661239663, 45.935198130080657 ], [ 11.299626605831959, 45.929044502274309 ], [ 11.303775776976844, 45.918236566424035 ], [ 11.290009476418394, 45.917103347392747 ], [ 11.270641041560975, 45.918624981397173 ], [ 11.263747855934154, 45.918192579586439 ], [ 11.261342017756775, 45.915748589695639 ], [ 11.260641614748943, 45.908332865788282 ], [ 11.251121140251865, 45.896123212336406 ], [ 11.254634750034652, 45.891237043815707 ], [ 11.255080815653844, 45.884006552126188 ], [ 11.24773708621907, 45.885802445473175 ], [ 11.236877572573002, 45.880769770465093 ], [ 11.236553122453534, 45.878272692528562 ], [ 11.239742480302523, 45.876381576803794 ], [ 11.244363892996077, 45.876946086374375 ], [ 11.23957211373677, 45.857025872790842 ], [ 11.23044512652281, 45.851215460779912 ], [ 11.222722059192385, 45.848917283324631 ], [ 11.219154532901417, 45.840086601010015 ], [ 11.218799213780787, 45.832601731912391 ], [ 11.198348690364211, 45.823672588170588 ], [ 11.188821243577607, 45.813572540201079 ], [ 11.190198816254266, 45.802906683053727 ], [ 11.193848851672911, 45.802072619860837 ], [ 11.193510399028385, 45.793851434278416 ], [ 11.203168597966929, 45.783477770115155 ], [ 11.198738335683892, 45.781594569065497 ], [ 11.190071426880648, 45.781615071580951 ], [ 11.178383561985632, 45.788114498041558 ], [ 11.173549829130705, 45.786669596008437 ], [ 11.179812548727909, 45.772553916190837 ], [ 11.180655934943479, 45.762907464574745 ], [ 11.17613263278956, 45.747417385036606 ], [ 11.178742858248402, 45.737659631669928 ], [ 11.172604823230795, 45.731620386408821 ], [ 11.153455891322169, 45.720904054790516 ], [ 11.138750141431146, 45.709440641938251 ], [ 11.135850109455681, 45.699581191955467 ], [ 11.138509789095064, 45.696848294739468 ], [ 11.122888576084129, 45.689815233797262 ], [ 11.123378658911502, 45.693822865205178 ], [ 11.121388682959235, 45.69554544391729 ], [ 11.115121013294717, 45.696484134257084 ], [ 11.099936972776774, 45.694639496649501 ], [ 11.090033770710786, 45.696131380434636 ], [ 11.066820830202325, 45.708169582605251 ], [ 11.055790722732965, 45.718243525769971 ], [ 11.041376974820288, 45.706319091472317 ], [ 11.027195681409534, 45.704688584511004 ], [ 11.016774103532686, 45.705914076251403 ], [ 11.015767977476145, 45.71365360259982 ], [ 11.011704325858558, 45.716420801182821 ], [ 11.006652857834807, 45.710442792716769 ], [ 10.996113471044575, 45.707979283827072 ], [ 10.997631942458744, 45.697027449818343 ], [ 10.978754876693673, 45.685535939400268 ], [ 10.968369799283741, 45.680627720391129 ], [ 10.969383129740292, 45.687433153398089 ], [ 10.974940764178564, 45.695969058842458 ], [ 10.972202424509877, 45.701817735300857 ], [ 10.964748451174593, 45.688393276595455 ], [ 10.95123287775229, 45.684522344900195 ], [ 10.945035521458465, 45.675401142191205 ], [ 10.935361424164833, 45.674545331773132 ], [ 10.92207582206594, 45.679825283817337 ], [ 10.911997606236854, 45.688314670696236 ], [ 10.913238072428227, 45.691849504580027 ], [ 10.925998666824816, 45.699172520744298 ], [ 10.884376190352233, 45.716621966921501 ], [ 10.843832376424819, 45.718592814607625 ], [ 10.844402079826263, 45.724883830958817 ], [ 10.855029264455577, 45.741854823571238 ], [ 10.858261348791247, 45.743795417836353 ], [ 10.862627178511973, 45.743661313004075 ], [ 10.866811131141693, 45.763989777544602 ], [ 10.883007057431264, 45.772023330975777 ], [ 10.884976447358921, 45.774654882566409 ], [ 10.884777849113094, 45.778237373515239 ], [ 10.87823588800809, 45.785680768002592 ], [ 10.8727237285926, 45.78838368004844 ], [ 10.877007838424822, 45.803471003406472 ], [ 10.887585175826894, 45.811646845944232 ], [ 10.88159255636517, 45.81758069580787 ], [ 10.825861305378806, 45.837688021648425 ], [ 10.791214673849494, 45.833457365107932 ], [ 10.783813688926758, 45.836458600151545 ], [ 10.778144518065726, 45.842603578092934 ], [ 10.77263434446734, 45.8429145850805 ], [ 10.76306494723209, 45.839960982548064 ], [ 10.756350437366498, 45.830026903841834 ], [ 10.748523600573707, 45.83790343217219 ], [ 10.735553304937282, 45.842722948488671 ], [ 10.725849049391574, 45.84212782843526 ], [ 10.717294822691601, 45.83690869525212 ], [ 10.711012997834601, 45.836062629453941 ], [ 10.695621772501044, 45.839873360385489 ], [ 10.677074763561256, 45.830943470621783 ], [ 10.656065554019699, 45.832323923491032 ], [ 10.650744467676775, 45.812152775845952 ], [ 10.645828574606259, 45.804569766711751 ], [ 10.641657096907752, 45.802083645018897 ], [ 10.63269821685329, 45.806486382407293 ], [ 10.611710143341579, 45.805321222033555 ], [ 10.589082903950763, 45.797871169002192 ], [ 10.582389956701125, 45.794295474778913 ], [ 10.581148942740322, 45.789516194417594 ], [ 10.564265414356468, 45.784564180599794 ], [ 10.553673584938238, 45.783933321659163 ], [ 10.538416433186516, 45.785522467872916 ], [ 10.532978035747288, 45.787961792565419 ], [ 10.531752580058672, 45.809404973966544 ], [ 10.537284627179707, 45.810754849174174 ], [ 10.543118634253277, 45.814906086347122 ], [ 10.543627836874391, 45.817647819014695 ], [ 10.528373048347291, 45.826574660270197 ], [ 10.51847051086532, 45.826396485284668 ], [ 10.508056877588521, 45.823903398938221 ], [ 10.502827602254078, 45.829733969603637 ], [ 10.502591724648321, 45.835120520445066 ], [ 10.506555034489809, 45.842410610824025 ], [ 10.501634242229882, 45.860947986265252 ], [ 10.503702059283155, 45.873567786247207 ], [ 10.49110595474364, 45.88228263596919 ], [ 10.490042391426249, 45.884610825065472 ], [ 10.495935598054876, 45.899740916281175 ], [ 10.507690118348043, 45.905344250140139 ], [ 10.510845562724985, 45.915580734528255 ], [ 10.508568122550688, 45.923566172755876 ], [ 10.491583865515402, 45.933996381002267 ], [ 10.489127330371337, 45.942386197758466 ], [ 10.484693163423252, 45.94536403513532 ], [ 10.483261814771454, 45.950527715890644 ], [ 10.489416997920978, 45.963774011483501 ], [ 10.486604668520043, 45.971158329803622 ], [ 10.478257521993918, 45.970152457980838 ], [ 10.453576256587136, 45.976419533685871 ], [ 10.45300035158515, 45.988888572382436 ], [ 10.45829212948825, 46.010425167596971 ], [ 10.470815724083543, 46.021082650432596 ], [ 10.481499876802429, 46.021107074590383 ], [ 10.484399616221964, 46.023995945978577 ], [ 10.485948295436614, 46.030054590744719 ], [ 10.482087891481163, 46.049738483296984 ], [ 10.483040034806855, 46.057240776542244 ], [ 10.490919686638081, 46.0668086748463 ], [ 10.514171295295196, 46.078628046275391 ], [ 10.522368110611305, 46.08869819697113 ], [ 10.535743272718939, 46.097731176371354 ], [ 10.541683786360252, 46.104028436822887 ], [ 10.547892033914431, 46.115648806666933 ], [ 10.550697542956343, 46.123708807283187 ], [ 10.548132108163058, 46.146165645974342 ], [ 10.565394916902203, 46.166838648456853 ], [ 10.554552364119603, 46.180269912680913 ], [ 10.543736824471567, 46.187440404898688 ], [ 10.545357220548469, 46.194339926247117 ], [ 10.55080362466631, 46.206802777499426 ], [ 10.570470875665677, 46.221897878864496 ], [ 10.571073848994883, 46.225791091286418 ], [ 10.568220770001339, 46.233721036564326 ], [ 10.580746937711313, 46.239625577054888 ], [ 10.584895180389493, 46.244810782034513 ], [ 10.585054170682982, 46.248696729252096 ], [ 10.576295929391097, 46.272668253052643 ], [ 10.562032047961937, 46.281639503479035 ], [ 10.560479181244922, 46.284520563258496 ], [ 10.579343054097752, 46.298324949876822 ], [ 10.578884540170424, 46.301947311945916 ], [ 10.564859945411689, 46.313014497878093 ], [ 10.563034440731984, 46.327299695071503 ], [ 10.533419733311357, 46.339400640532183 ], [ 10.521012938051149, 46.343542614154359 ], [ 10.515714830514044, 46.343217878670899 ], [ 10.519241273394357, 46.355313414311631 ], [ 10.528474548023979, 46.356805157143931 ], [ 10.532825623104861, 46.356378425909121 ], [ 10.534540273835587, 46.35417093174209 ], [ 10.541016460750351, 46.355233902594989 ], [ 10.543934448823268, 46.358865885376524 ], [ 10.541980575191571, 46.360899038765908 ], [ 10.567043599332939, 46.37792851385597 ], [ 10.570477966237249, 46.376931347464229 ], [ 10.598055279720734, 46.377385862288193 ], [ 10.605985142405313, 46.379229267034511 ], [ 10.610809149436925, 46.387263511278782 ], [ 10.630984331495778, 46.402286979355956 ], [ 10.628225596267702, 46.407675754768889 ], [ 10.619225938274763, 46.414399054856595 ], [ 10.617945697116753, 46.417396537143958 ], [ 10.616462598988136, 46.429967967919453 ], [ 10.619218474519434, 46.436878065563469 ], [ 10.616622713577963, 46.443636574389807 ], [ 10.62183400234232, 46.447963637705627 ], [ 10.638106990440564, 46.445507614800135 ], [ 10.664834727809634, 46.451499730655271 ], [ 10.685181346802173, 46.451790563147703 ], [ 10.700896444066148, 46.458664032904807 ], [ 10.716709002060714, 46.462072614293305 ], [ 10.743333230366138, 46.484223124967961 ], [ 10.759977240869208, 46.486434072607238 ], [ 10.766199613866407, 46.484613327728447 ], [ 10.77852593918797, 46.472287463129859 ], [ 10.789552406014971, 46.453809890916695 ], [ 10.800380528513614, 46.442966142163897 ], [ 10.822239640207441, 46.441800858726815 ], [ 10.835067861094197, 46.438841735264731 ], [ 10.851111897400589, 46.439250005769445 ], [ 10.854975120410217, 46.437091880317958 ], [ 10.861401517778784, 46.436169513947512 ], [ 10.865796311587728, 46.438260968699574 ], [ 10.868798193668677, 46.442011946381669 ], [ 10.884884530200909, 46.450052672864331 ], [ 10.887158752780236, 46.446921583695641 ], [ 10.892223004764366, 46.444650917831275 ], [ 10.913044286443688, 46.443998422430127 ], [ 10.932212670816631, 46.45355660785139 ], [ 10.930919011193264, 46.458340624457087 ], [ 10.935736943879473, 46.46520704951633 ], [ 10.956563705658548, 46.470440958671624 ], [ 10.963752949550331, 46.480163886194866 ], [ 10.975747491370962, 46.484025344310268 ], [ 10.988561601372249, 46.483450484541621 ], [ 11.005858805049883, 46.476804061218317 ], [ 11.015857321712547, 46.467986253442227 ], [ 11.031076864640731, 46.459624328401155 ], [ 11.042083319743975, 46.446659717418463 ], [ 11.047310223544414, 46.446403043664809 ], [ 11.048777154574699, 46.449014933396541 ], [ 11.054566527426918, 46.449501713300492 ], [ 11.072821779377495, 46.441494752534254 ], [ 11.075024289144499, 46.442525351094154 ], [ 11.075944949651261, 46.447376669958331 ], [ 11.061851094840845, 46.486675941362179 ], [ 11.046822862761509, 46.508117478748467 ], [ 11.035352924431463, 46.513438991500301 ], [ 11.037094676982838, 46.51451013033909 ], [ 11.044092695698575, 46.516815295729792 ], [ 11.054855800857926, 46.516307942010243 ], [ 11.076591729280878, 46.52916603997835 ], [ 11.083352180086976, 46.530214945472913 ], [ 11.089447390139195, 46.501847879491244 ], [ 11.104075947366555, 46.496216162193953 ], [ 11.113759522784276, 46.495439542066826 ], [ 11.130741349524255, 46.482096574937081 ], [ 11.149128932303768, 46.485599820856073 ], [ 11.172890078790886, 46.497358121654997 ], [ 11.178606239055837, 46.498771134376376 ], [ 11.18502056375025, 46.506685280853119 ], [ 11.190328284908338, 46.506175961529046 ], [ 11.206155587217136, 46.496960522025546 ], [ 11.210506876858615, 46.48994372230591 ], [ 11.212390198755051, 46.478911694725539 ], [ 11.217855291754647, 46.472857367151128 ], [ 11.220421326065683, 46.462048200896163 ], [ 11.219095948364535, 46.457195992875278 ], [ 11.216658381805805, 46.456095797154731 ], [ 11.21357163034115, 46.450324578690669 ], [ 11.217406723226077, 46.44337716415594 ], [ 11.215716954283875, 46.435405706788778 ], [ 11.205631534374646, 46.425957164243684 ], [ 11.214973026592045, 46.403897976931724 ], [ 11.214251714291548, 46.398346153660398 ], [ 11.203589055012278, 46.378394490118886 ], [ 11.202836051767431, 46.369666839919439 ], [ 11.197116770051336, 46.3650016206457 ], [ 11.193166905378565, 46.364578432206876 ], [ 11.191648815559494, 46.359941043775017 ], [ 11.192852381604881, 46.355696948851296 ], [ 11.201257447647976, 46.349113709692631 ], [ 11.203490372454747, 46.342654191335427 ], [ 11.197404203758049, 46.332098094841662 ], [ 11.190483902070657, 46.327545241736573 ], [ 11.178452232283355, 46.306818544945479 ], [ 11.162818848598263, 46.29142407748482 ], [ 11.157404626849711, 46.289317071737152 ], [ 11.14429618824963, 46.288362249733467 ], [ 11.140671836259273, 46.282757414999757 ], [ 11.149970824306179, 46.279803170804016 ], [ 11.155864208570197, 46.271700617104742 ], [ 11.165937128148894, 46.262904750819899 ], [ 11.174280370960432, 46.259402103249698 ], [ 11.195071569044266, 46.258197234224419 ], [ 11.200724267500284, 46.254417240495947 ], [ 11.197250713725438, 46.247234668289494 ], [ 11.189819744440189, 46.249113002048112 ], [ 11.188242220293622, 46.252755702609441 ], [ 11.184546142057226, 46.251886979522716 ], [ 11.180671413592306, 46.243173684096362 ], [ 11.17646390171223, 46.238971290645075 ], [ 11.173155420658805, 46.239418437027688 ], [ 11.172360575477816, 46.237930520595853 ], [ 11.175401349540694, 46.23204505259892 ], [ 11.18265118525157, 46.226448187932114 ], [ 11.20159219471163, 46.222888681323518 ], [ 11.205158781118092, 46.220635219590577 ], [ 11.213751755753702, 46.221624311740094 ], [ 11.239643500394713, 46.228435383769657 ], [ 11.263433869723093, 46.241652983884613 ], [ 11.275163979807415, 46.251900749047614 ], [ 11.286404642051275, 46.258864405460677 ], [ 11.296730108371444, 46.260378910291735 ], [ 11.305616482608775, 46.258767082985003 ], [ 11.315851212729392, 46.273272522894658 ], [ 11.313724340517078, 46.279339919712513 ], [ 11.311229687491409, 46.280936444038822 ], [ 11.322699860206633, 46.29126066495504 ], [ 11.332142058269531, 46.296414002626868 ], [ 11.339520002480205, 46.296531675438288 ], [ 11.336320726662436, 46.289630408176343 ], [ 11.34192619764395, 46.281846096253702 ], [ 11.356203277464257, 46.27641384180496 ], [ 11.358816462750465, 46.265658974566662 ], [ 11.377255783166396, 46.261963690243206 ], [ 11.389610435020304, 46.262291001475198 ], [ 11.397623886199133, 46.264832201510977 ], [ 11.394673276270469, 46.273768041894378 ], [ 11.381284706878054, 46.291157378219189 ], [ 11.358820084187766, 46.296159900274532 ], [ 11.359533720294069, 46.299604489473985 ], [ 11.364146884939412, 46.301710394264774 ], [ 11.378139316664756, 46.300970051463061 ], [ 11.385342011246532, 46.302664964640016 ], [ 11.396272761861693, 46.309726394570355 ], [ 11.402902975410438, 46.322925362052615 ], [ 11.407264950176664, 46.324793990674301 ], [ 11.42422639626805, 46.326495041794026 ], [ 11.454472853704761, 46.334726145184014 ], [ 11.462068057181281, 46.349953366464966 ], [ 11.464986723383875, 46.351617616968809 ], [ 11.472787713322045, 46.35181946937108 ], [ 11.479555657087342, 46.356127350589404 ], [ 11.477128330522341, 46.363677072585524 ], [ 11.512003983006313, 46.358645496447913 ], [ 11.535259008598647, 46.352761385430007 ], [ 11.545877235289998, 46.34555194209112 ], [ 11.551765182879695, 46.345944519614655 ], [ 11.557107261737423, 46.351126242370903 ], [ 11.558672807309868, 46.367635080755996 ], [ 11.563667145913806, 46.380853393536562 ], [ 11.592128076032708, 46.383689705741453 ], [ 11.601723522421393, 46.389786884124639 ], [ 11.601726912511989, 46.399410144650943 ], [ 11.619817837150105, 46.429359103613571 ], [ 11.617829482118331, 46.444134566667017 ], [ 11.6219968816175, 46.456046793534618 ], [ 11.625993390261424, 46.460888752571641 ], [ 11.626742241389048, 46.471985160620491 ], [ 11.642970973922065, 46.47526935174416 ], [ 11.649950875640208, 46.482832876685208 ], [ 11.642349778353774, 46.490459433792154 ], [ 11.633483200842994, 46.494287476745065 ], [ 11.632614846718727, 46.498693959630401 ], [ 11.634234530123821, 46.499650165567274 ], [ 11.639058984171957, 46.501818301433815 ], [ 11.646949803535176, 46.498444632980984 ], [ 11.664834632416516, 46.497527539575316 ], [ 11.689044630102964, 46.503133725582039 ], [ 11.716640410603365, 46.512939265356138 ], [ 11.744226007771047, 46.50503462318656 ], [ 11.78159088248526, 46.510673784854099 ], [ 11.790637934682167, 46.514999846600276 ], [ 11.792980659918168, 46.521295509886542 ], [ 11.800762726724658, 46.527665268308546 ], [ 11.811184710025563, 46.532764283990495 ], [ 11.825489038595958, 46.521785156240895 ] ] ] } },
{ "type": "Feature", "properties": { "unit": "Veneto" }, "geometry": { "type": "Polygon", "coordinates": [ [ [ 12.32724708878847, 45.139902521587246 ], [ 12.32907785520675, 45.118792115560929 ], [ 12.336948851946406, 45.098293620191697 ], [ 12.333897446453104, 45.089018789170574 ], [ 12.344895269437805, 45.089194175661845 ], [ 12.356548539018988, 45.075470785109005 ], [ 12.371335545418964, 45.066689613321138 ], [ 12.410030800567428, 45.036959659792117 ], [ 12.4501434953069, 45.010601901382294 ], [ 12.460771646339495, 45.00649676785325 ], [ 12.484937411471028, 44.993058858240289 ], [ 12.495563891422663, 44.996289896563397 ], [ 12.504211514163581, 44.994538336934063 ], [ 12.506543279228978, 44.989626934256144 ], [ 12.505688674499234, 44.996741330749671 ], [ 12.529149070408673, 44.981724841518059 ], [ 12.543563339035343, 44.975776806699123 ], [ 12.553530253073104, 44.968966184603453 ], [ 12.555263858266246, 44.965749170053499 ], [ 12.555253647297368, 44.960376213963315 ], [ 12.540857074502306, 44.954738512233519 ], [ 12.514758596839576, 44.93284236093907 ], [ 12.509930666768261, 44.926605849842254 ], [ 12.481404454506599, 44.868011588957991 ], [ 12.466072597184713, 44.843700495646921 ], [ 12.454505480254431, 44.838084970332439 ], [ 12.424355534262286, 44.827176499390696 ], [ 12.415451126070966, 44.820039808564189 ], [ 12.423437023151209, 44.814572483032926 ], [ 12.42236576588328, 44.811057833805037 ], [ 12.399799813590811, 44.792875821691808 ], [ 12.390226496564951, 44.795924166616715 ], [ 12.355193352386843, 44.815082031040426 ], [ 12.347046612548665, 44.828166317204037 ], [ 12.343452135297138, 44.845834664192253 ], [ 12.340533773550963, 44.850070089961399 ], [ 12.334391521436284, 44.852617319207376 ], [ 12.301932230348394, 44.855739959756043 ], [ 12.2941087223609, 44.860359112554704 ], [ 12.285996005928467, 44.87236768763627 ], [ 12.284023848318157, 44.88642254664525 ], [ 12.28514956023019, 44.897066457951141 ], [ 12.281872214690964, 44.910015565910626 ], [ 12.293182917006858, 44.92305749134519 ], [ 12.294737332057098, 44.927414544214784 ], [ 12.292279123038574, 44.931626405014526 ], [ 12.280868825660194, 44.94176721437406 ], [ 12.27215731493609, 44.943259686142206 ], [ 12.246718248936261, 44.93562374698157 ], [ 12.23544672988524, 44.931384953817279 ], [ 12.229590438895039, 44.924677458022416 ], [ 12.224971817956783, 44.922980725267543 ], [ 12.215872856875185, 44.925452050474071 ], [ 12.187670116120147, 44.92643259701974 ], [ 12.179338348193799, 44.931831886781787 ], [ 12.174890622054411, 44.93940965379344 ], [ 12.170675931515476, 44.942047383477394 ], [ 12.16106885743142, 44.938596187179257 ], [ 12.158764111308184, 44.933751556532009 ], [ 12.14443032274788, 44.928288739511693 ], [ 12.138890919728171, 44.92956745940122 ], [ 12.127579870893022, 44.935495297460307 ], [ 12.11753170207921, 44.951208640858113 ], [ 12.114929482848673, 44.959102341762197 ], [ 12.091563646352769, 44.970207082105183 ], [ 12.072348172226285, 44.972040413684013 ], [ 12.061057342840828, 44.96958029976944 ], [ 12.043110259347271, 44.976703745416025 ], [ 12.015454374644209, 44.976555829054199 ], [ 12.000008510513254, 44.981324098665091 ], [ 11.975007746972617, 44.985831791474055 ], [ 11.960990032666363, 44.986547489613038 ], [ 11.938747527364066, 44.977972118394256 ], [ 11.924583091281075, 44.974676782380335 ], [ 11.889778504569431, 44.976972323019126 ], [ 11.837927769578659, 44.972782511091786 ], [ 11.815864550910177, 44.977181894410258 ], [ 11.802577801154504, 44.976482775765504 ], [ 11.783826521663494, 44.964186081871226 ], [ 11.745631001710603, 44.957333814435572 ], [ 11.741232635566835, 44.953091591317857 ], [ 11.739904583307352, 44.948586571604565 ], [ 11.744846859517819, 44.934973922961689 ], [ 11.732933081755251, 44.926609309243283 ], [ 11.715532277408277, 44.926337589735446 ], [ 11.697808173962446, 44.920221192054441 ], [ 11.671277786538287, 44.914756263392697 ], [ 11.623269140939797, 44.888781413529657 ], [ 11.599287828706746, 44.889213361427743 ], [ 11.593535918426584, 44.890892242806693 ], [ 11.591254874747518, 44.893235050815747 ], [ 11.588331657844842, 44.899262867855867 ], [ 11.587610581145935, 44.90877052889968 ], [ 11.583334567317868, 44.914195452894752 ], [ 11.574803169067527, 44.917886439790536 ], [ 11.560063771694141, 44.92050802411017 ], [ 11.542816794889543, 44.932857096261586 ], [ 11.531976519887753, 44.936833861948358 ], [ 11.469601817567474, 44.936373080651933 ], [ 11.432556982229531, 44.929112783953386 ], [ 11.426351605695622, 44.930100048573038 ], [ 11.423929711276852, 44.937893173711586 ], [ 11.427588447735264, 44.956534898507023 ], [ 11.421912206124471, 44.963830000232534 ], [ 11.409027757325635, 44.969530812016963 ], [ 11.394559168439455, 44.971617642757934 ], [ 11.335812042943113, 44.990397654980157 ], [ 11.327288354866489, 44.995593726011819 ], [ 11.308740333842383, 45.012359340976808 ], [ 11.274037872610133, 45.018258586291857 ], [ 11.26642491155431, 45.030553901423886 ], [ 11.263053340238454, 45.032938768071027 ], [ 11.270455474427322, 45.044512136148775 ], [ 11.268699362619829, 45.053404803630826 ], [ 11.265902542131959, 45.056223908446725 ], [ 11.262712485267771, 45.056809289813359 ], [ 11.259480321584025, 45.055361018727289 ], [ 11.247597708183045, 45.044460404872936 ], [ 11.240440888078311, 45.042953767583555 ], [ 11.235031405169686, 45.044572122779563 ], [ 11.212191052535276, 45.057484492510845 ], [ 11.197421619692678, 45.060497389552658 ], [ 11.181128603256147, 45.061234070391869 ], [ 11.175279829114737, 45.060066315882914 ], [ 11.173628437414219, 45.070782790732473 ], [ 11.175486548931943, 45.074888224525594 ], [ 11.188368223019745, 45.084084825907041 ], [ 11.187453920858587, 45.086532818747592 ], [ 11.176816388869931, 45.088491507596359 ], [ 11.177508735685496, 45.09734496336884 ], [ 11.205477521902994, 45.109491420850638 ], [ 11.203434135031253, 45.111667286924096 ], [ 11.187559252024815, 45.10994933877187 ], [ 11.173917964775017, 45.115745385020858 ], [ 11.164549212028039, 45.11745369994987 ], [ 11.146437334309603, 45.126068264903125 ], [ 11.137675732670422, 45.123334116064832 ], [ 11.134820654993696, 45.109858008292946 ], [ 11.132485015491936, 45.106051981613078 ], [ 11.127404591230142, 45.103227169548028 ], [ 11.117065544250146, 45.10447105622881 ], [ 11.105585505159842, 45.108204588078365 ], [ 11.102143824073055, 45.113137936638147 ], [ 11.094893032282377, 45.106069846325092 ], [ 11.094124830822871, 45.09970492556846 ], [ 11.0875914609215, 45.098255099705035 ], [ 11.0751505061428, 45.09830189352202 ], [ 11.038796431325464, 45.114524797233869 ], [ 11.028696851451395, 45.123045405993992 ], [ 11.028395262001895, 45.126732451330675 ], [ 11.04384765437478, 45.134279306629587 ], [ 11.042285360925112, 45.143948090334568 ], [ 11.050146611844879, 45.149991312960317 ], [ 11.046633917035923, 45.15314189957909 ], [ 11.031819992995054, 45.152263317454157 ], [ 11.028365545738662, 45.159238005943969 ], [ 11.021260543250847, 45.156564512573389 ], [ 11.010244628120418, 45.148657545294888 ], [ 10.994982289666783, 45.153471065349251 ], [ 10.998797238900599, 45.164701382322335 ], [ 10.993225085443528, 45.18406221402801 ], [ 10.996778036037963, 45.187384737491918 ], [ 10.990676637975449, 45.19566473246492 ], [ 10.96603245948601, 45.205608064773102 ], [ 10.945957423943655, 45.207742409141964 ], [ 10.934541566632847, 45.215479033455793 ], [ 10.93145531890578, 45.217610645555212 ], [ 10.930806883249657, 45.2255429736026 ], [ 10.936383579693517, 45.232875597982968 ], [ 10.902087411785677, 45.237484042120343 ], [ 10.899658321493959, 45.245670808857199 ], [ 10.884818576414052, 45.248045761267768 ], [ 10.876279594602662, 45.252745495165087 ], [ 10.846608104246071, 45.256568843798469 ], [ 10.840839248504198, 45.265384442838403 ], [ 10.840151044014645, 45.270266982863063 ], [ 10.829419583139725, 45.281980723096339 ], [ 10.816873912023889, 45.289307094869478 ], [ 10.816315773265064, 45.293393632710554 ], [ 10.811969230279901, 45.296667220404267 ], [ 10.782815303410473, 45.315421579347053 ], [ 10.737415845951581, 45.287244849251834 ], [ 10.728348037911491, 45.291302133185077 ], [ 10.733099255552153, 45.305448315371741 ], [ 10.731150878349901, 45.315190386446581 ], [ 10.721960599186696, 45.318830904659748 ], [ 10.716381729254511, 45.316610545565482 ], [ 10.706382650460423, 45.316301304271022 ], [ 10.713175833777107, 45.323688741628018 ], [ 10.715029519166658, 45.333868150704859 ], [ 10.705774408673101, 45.339389981114216 ], [ 10.693516473483957, 45.34052226788333 ], [ 10.686904802767392, 45.342649782731293 ], [ 10.685732402555217, 45.352172525015931 ], [ 10.704469281065574, 45.359407110221426 ], [ 10.714626309011932, 45.367931251855119 ], [ 10.70638734618859, 45.369998478116059 ], [ 10.698267213260076, 45.378995201610877 ], [ 10.707873192337825, 45.385818955267546 ], [ 10.718011522168247, 45.397485568283308 ], [ 10.719223156439041, 45.400303171438523 ], [ 10.715793345914424, 45.416637584212623 ], [ 10.702349758065635, 45.421357970043395 ], [ 10.665234090881528, 45.427717072062038 ], [ 10.654626059751227, 45.41582268398782 ], [ 10.643865135048506, 45.417817269969753 ], [ 10.647411970775641, 45.42375198010685 ], [ 10.646764498444973, 45.441043672933105 ], [ 10.640276169885725, 45.443495367207682 ], [ 10.63138994457799, 45.439527100087695 ], [ 10.624552591145397, 45.43830139057404 ], [ 10.622936870732344, 45.442149882695581 ], [ 10.623645985976266, 45.443616010204231 ], [ 10.644290294486805, 45.44488589699224 ], [ 10.647737085220971, 45.448536642430696 ], [ 10.643007706499111, 45.457567995687278 ], [ 10.627886466417134, 45.606862405140852 ], [ 10.705606595392293, 45.676412547307798 ], [ 10.771985701173881, 45.750779331801041 ], [ 10.814781320821238, 45.804044362602284 ], [ 10.832468511338181, 45.815570898658514 ], [ 10.840150472097323, 45.832755997623359 ], [ 10.88159255636517, 45.81758069580787 ], [ 10.887585175826894, 45.811646845944232 ], [ 10.877007838424822, 45.803471003406472 ], [ 10.8727237285926, 45.78838368004844 ], [ 10.87823588800809, 45.785680768002592 ], [ 10.884777849113094, 45.778237373515239 ], [ 10.884976447358921, 45.774654882566409 ], [ 10.883007057431264, 45.772023330975777 ], [ 10.866811131141693, 45.763989777544602 ], [ 10.862627178511973, 45.743661313004075 ], [ 10.858261348791247, 45.743795417836353 ], [ 10.855029264455577, 45.741854823571238 ], [ 10.844402079826263, 45.724883830958817 ], [ 10.843832376424819, 45.718592814607625 ], [ 10.884376190352233, 45.716621966921501 ], [ 10.925998666824816, 45.699172520744298 ], [ 10.913238072428227, 45.691849504580027 ], [ 10.911997606236854, 45.688314670696236 ], [ 10.92207582206594, 45.679825283817337 ], [ 10.935361424164833, 45.674545331773132 ], [ 10.945035521458465, 45.675401142191205 ], [ 10.95123287775229, 45.684522344900195 ], [ 10.964748451174593, 45.688393276595455 ], [ 10.972202424509877, 45.701817735300857 ], [ 10.974940764178564, 45.695969058842458 ], [ 10.969383129740292, 45.687433153398089 ], [ 10.968369799283741, 45.680627720391129 ], [ 10.978754876693673, 45.685535939400268 ], [ 10.997631942458744, 45.697027449818343 ], [ 10.996113471044575, 45.707979283827072 ], [ 11.006652857834807, 45.710442792716769 ], [ 11.011704325858558, 45.716420801182821 ], [ 11.015767977476145, 45.71365360259982 ], [ 11.016774103532686, 45.705914076251403 ], [ 11.027195681409534, 45.704688584511004 ], [ 11.041376974820288, 45.706319091472317 ], [ 11.055790722732965, 45.718243525769971 ], [ 11.066820830202325, 45.708169582605251 ], [ 11.090033770710786, 45.696131380434636 ], [ 11.099936972776774, 45.694639496649501 ], [ 11.115121013294717, 45.696484134257084 ], [ 11.12071730688727, 45.695664979397172 ], [ 11.123378658911502, 45.693822865205178 ], [ 11.122888576084129, 45.689815233797262 ], [ 11.125346160748682, 45.690437981565168 ], [ 11.138509789095064, 45.696848294739468 ], [ 11.135850109455681, 45.699581191955467 ], [ 11.138750141431146, 45.709440641938251 ], [ 11.153455891322169, 45.720904054790516 ], [ 11.172604823230795, 45.731620386408821 ], [ 11.178742858248402, 45.737659631669928 ], [ 11.17613263278956, 45.747417385036606 ], [ 11.180655934943479, 45.762907464574745 ], [ 11.179812548727909, 45.772553916190837 ], [ 11.173549829130705, 45.786669596008437 ], [ 11.178383561985632, 45.788114498041558 ], [ 11.190071426880648, 45.781615071580951 ], [ 11.198738335683892, 45.781594569065497 ], [ 11.203168597966929, 45.783477770115155 ], [ 11.193510399028385, 45.793851434278416 ], [ 11.193848851672911, 45.802072619860837 ], [ 11.190198816254266, 45.802906683053727 ], [ 11.188821243577607, 45.813572540201079 ], [ 11.198348690364211, 45.823672588170588 ], [ 11.218799213780787, 45.832601731912391 ], [ 11.219154532901417, 45.840086601010015 ], [ 11.222722059192385, 45.848917283324631 ], [ 11.23044512652281, 45.851215460779912 ], [ 11.23957211373677, 45.857025872790842 ], [ 11.244363892996077, 45.876946086374375 ], [ 11.239742480302523, 45.876381576803794 ], [ 11.236553122453534, 45.878272692528562 ], [ 11.236877572573002, 45.880769770465093 ], [ 11.24773708621907, 45.885802445473175 ], [ 11.255080815653844, 45.884006552126188 ], [ 11.254634750034652, 45.891237043815707 ], [ 11.251121140251865, 45.896123212336406 ], [ 11.260641614748943, 45.908332865788282 ], [ 11.261342017756775, 45.915748589695639 ], [ 11.263747855934154, 45.918192579586439 ], [ 11.270641041560975, 45.918624981397173 ], [ 11.290009476418394, 45.917103347392747 ], [ 11.303775776976844, 45.918236566424035 ], [ 11.299626605831959, 45.929044502274309 ], [ 11.300686661239663, 45.935198130080657 ], [ 11.305193271187894, 45.92690611546076 ], [ 11.312905942777709, 45.926835259550593 ], [ 11.324871784197381, 45.917391567933251 ], [ 11.336753902402572, 45.914483418160636 ], [ 11.34554080677329, 45.909102514029115 ], [ 11.349314925580186, 45.90953164823199 ], [ 11.350084027286925, 45.914501033999855 ], [ 11.345034538938672, 45.920944207826189 ], [ 11.353590793689595, 45.923993397258165 ], [ 11.357236952983461, 45.928642560922952 ], [ 11.36156753339225, 45.942977306216278 ], [ 11.380062433778731, 45.942844796389238 ], [ 11.382043755535937, 45.94450986500307 ], [ 11.382686791099921, 45.952640786561467 ], [ 11.377914407395895, 45.957169600298933 ], [ 11.372415417138011, 45.973232206182466 ], [ 11.37373991073995, 45.983502831561722 ], [ 11.378493164212685, 45.984050441702252 ], [ 11.400149731073283, 45.98010181508819 ], [ 11.44666384183682, 45.980922873381736 ], [ 11.472748416255467, 45.997790166998712 ], [ 11.483980368923509, 46.001382339334938 ], [ 11.489680516848285, 46.00782432971652 ], [ 11.49347960682776, 46.009451059089166 ], [ 11.501012281260952, 46.01089377481771 ], [ 11.533722710571757, 46.012138635472837 ], [ 11.552326915137353, 46.011668521229105 ], [ 11.57002846953918, 46.006495006317259 ], [ 11.577230061767603, 46.006520280160501 ], [ 11.58759202461227, 45.968997073000281 ], [ 11.600317541348334, 45.971346786235529 ], [ 11.614576964463856, 45.967391747187762 ], [ 11.621040413436431, 45.971466408775449 ], [ 11.630679129080123, 45.969379133778702 ], [ 11.62760840837584, 45.960640915020385 ], [ 11.649964175515148, 45.96479154008874 ], [ 11.666545430892246, 45.964102643759134 ], [ 11.676084949590283, 45.965742641080737 ], [ 11.685023420794277, 45.969219085759448 ], [ 11.683985337071006, 45.983767689603177 ], [ 11.689624096436717, 45.988510341648684 ], [ 11.669113449771508, 46.017697496831765 ], [ 11.678040325434619, 46.024056882211831 ], [ 11.678739649806101, 46.028366353355125 ], [ 11.673037643199411, 46.029488687337498 ], [ 11.666183818384974, 46.036214031626677 ], [ 11.677298047180447, 46.044253317835405 ], [ 11.700224749873744, 46.044593786967305 ], [ 11.705484470084762, 46.046754361923298 ], [ 11.704308964275205, 46.05224081968116 ], [ 11.697413150857814, 46.059593176181174 ], [ 11.686463030650899, 46.067002774422633 ], [ 11.682292337222902, 46.08754198959182 ], [ 11.685289241546513, 46.093568913060025 ], [ 11.691107346272387, 46.094990716816255 ], [ 11.706799365550657, 46.094340097961457 ], [ 11.718315407010236, 46.103319034254625 ], [ 11.73863763194292, 46.104795371193468 ], [ 11.749585818514957, 46.104680961162167 ], [ 11.755626364197816, 46.096870759714477 ], [ 11.758691755194706, 46.095601201173722 ], [ 11.777158336199902, 46.10317662954732 ], [ 11.814846301289043, 46.103441389260986 ], [ 11.823461348698842, 46.107661981784531 ], [ 11.837287093771126, 46.111198487768121 ], [ 11.875232245036806, 46.117234057606204 ], [ 11.884545833824109, 46.117255867920754 ], [ 11.893531674549523, 46.12128798361082 ], [ 11.901768609350819, 46.130590137426324 ], [ 11.907264710332605, 46.140149126671908 ], [ 11.919492509152475, 46.148551771094183 ], [ 11.918323077432349, 46.15527148815741 ], [ 11.928366940572142, 46.172682505377338 ], [ 11.937418807123436, 46.173831016402865 ], [ 11.950825393949039, 46.170113715403303 ], [ 11.951124015140504, 46.176122586300984 ], [ 11.95577285367551, 46.18381986819027 ], [ 11.962356551299543, 46.188413007136752 ], [ 11.962440718737328, 46.199129159838819 ], [ 11.939358748877964, 46.198820412219575 ], [ 11.927765345130371, 46.209048176802845 ], [ 11.924239310921406, 46.217169382263116 ], [ 11.90956945036165, 46.224427559874727 ], [ 11.918105595820535, 46.238309778950494 ], [ 11.927364782549779, 46.2485281891407 ], [ 11.921333967196512, 46.247899547958951 ], [ 11.912619058761841, 46.252675152077074 ], [ 11.900404828538711, 46.254090655816505 ], [ 11.894747395739904, 46.250936259796624 ], [ 11.891228353524973, 46.253164921603279 ], [ 11.884942234459336, 46.260734231061392 ], [ 11.887348534819861, 46.264414479846792 ], [ 11.888359036188481, 46.272512057165514 ], [ 11.88524794929762, 46.278808757467665 ], [ 11.853587525959046, 46.270876359787088 ], [ 11.840847491807969, 46.27007760051908 ], [ 11.835181422792239, 46.274117540365353 ], [ 11.826261275387683, 46.284970525956666 ], [ 11.838805140293614, 46.307657399278874 ], [ 11.832491617445076, 46.31240424318824 ], [ 11.831891161450791, 46.322661438730954 ], [ 11.820355142438101, 46.328472491555445 ], [ 11.802787900903919, 46.334322884433128 ], [ 11.799982833619376, 46.344229432749046 ], [ 11.77983754004989, 46.351043313062995 ], [ 11.774400097093519, 46.358215656195142 ], [ 11.782871739460854, 46.364317779816375 ], [ 11.790946272611476, 46.366663132770817 ], [ 11.80446111144909, 46.365115206156091 ], [ 11.813472448206385, 46.367600326143247 ], [ 11.814945164229533, 46.371240988387434 ], [ 11.822299669597992, 46.37492985351831 ], [ 11.830891895682484, 46.366932466991237 ], [ 11.835343389062318, 46.365920090241083 ], [ 11.832326379905126, 46.38759197604768 ], [ 11.841978842247876, 46.411648377986729 ], [ 11.838223186094201, 46.41523302549777 ], [ 11.850290218832246, 46.434159748868709 ], [ 11.870882786414116, 46.433214486066781 ], [ 11.888130602461134, 46.441775500550463 ], [ 11.886828824605171, 46.464743859384562 ], [ 11.877732745374697, 46.471364757088558 ], [ 11.852630301127412, 46.475116584562372 ], [ 11.817310793511234, 46.476614253184628 ], [ 11.813178632140252, 46.478170926347509 ], [ 11.81039285656129, 46.4848654085487 ], [ 11.819216243884973, 46.501007774858614 ], [ 11.828312394011085, 46.508913940617965 ], [ 11.851350811250693, 46.517836389415713 ], [ 11.888028692093116, 46.522843478483132 ], [ 11.911883946852067, 46.532960250903947 ], [ 11.93388747702731, 46.527897490523813 ], [ 11.945494686303205, 46.529416944665428 ], [ 11.949534260363345, 46.53923084758884 ], [ 11.967811296859988, 46.544571723450829 ], [ 11.987560564908224, 46.545299182038768 ], [ 11.998418884010851, 46.532855710212615 ], [ 12.027919663442349, 46.565258169184958 ], [ 12.034175702165246, 46.576786407836501 ], [ 12.046693548722592, 46.584724452031935 ], [ 12.049772304687142, 46.593759387403274 ], [ 12.046623601159906, 46.608081503349936 ], [ 12.05174961201117, 46.614541639407165 ], [ 12.060359686075836, 46.620087595122719 ], [ 12.065663776137859, 46.626991025932618 ], [ 12.0692324781394, 46.640074551252674 ], [ 12.071370457872193, 46.641601123552292 ], [ 12.071565557888377, 46.646087349539705 ], [ 12.067149681134225, 46.65395225248043 ], [ 12.069564026086534, 46.66410597974906 ], [ 12.06826443160964, 46.675146454751996 ], [ 12.075506749578039, 46.674429836954111 ], [ 12.10915555647602, 46.655624971519849 ], [ 12.11281290492464, 46.651946050214946 ], [ 12.127155396345826, 46.64466331540256 ], [ 12.131627904663185, 46.64409222144711 ], [ 12.140833211134842, 46.637281603417598 ], [ 12.153942031607102, 46.634679642935872 ], [ 12.163130607309091, 46.636245598637309 ], [ 12.171328320935338, 46.634101423673194 ], [ 12.186451234445411, 46.620795637270298 ], [ 12.194425893499089, 46.619515119810153 ], [ 12.19447447880672, 46.604746834254222 ], [ 12.192239221977617, 46.594563709462996 ], [ 12.20452026979043, 46.60017542035996 ], [ 12.212421965482179, 46.608960232388895 ], [ 12.23218173086717, 46.614045505297277 ], [ 12.260203270046361, 46.628711767251033 ], [ 12.263400376843698, 46.627999547242439 ], [ 12.272669158012235, 46.620892089134486 ], [ 12.286066742483852, 46.617911448803738 ], [ 12.305503735139901, 46.619173449399149 ], [ 12.315100779461098, 46.623811852228762 ], [ 12.316855157468812, 46.62981847275141 ], [ 12.34143032831318, 46.629952088531567 ], [ 12.347969218068847, 46.623985218958772 ], [ 12.359431910477232, 46.619742931844421 ], [ 12.371909850870901, 46.620243973056056 ], [ 12.385163328166872, 46.622781718087808 ], [ 12.388788464845598, 46.624469821552609 ], [ 12.389929657703142, 46.627392550091614 ], [ 12.378395259942485, 46.636685605625999 ], [ 12.379773553393605, 46.6429073895644 ], [ 12.383029788327997, 46.643711400135835 ], [ 12.391079070565571, 46.641612056756408 ], [ 12.403967908839849, 46.643024961046812 ], [ 12.437516045413757, 46.668924620313447 ], [ 12.477595181695758, 46.679819817497219 ], [ 12.48250268903684, 46.676883870861282 ], [ 12.513684078364941, 46.678111963576697 ], [ 12.519636658202719, 46.676766228953433 ], [ 12.528586512556664, 46.673364157405963 ], [ 12.531875785111183, 46.668524107364398 ], [ 12.559427724950389, 46.654173256793406 ], [ 12.561067579997268, 46.652055174057914 ], [ 12.567032014920127, 46.650804048436662 ], [ 12.570401865260768, 46.650770806841521 ], [ 12.578127622516147, 46.656136304363137 ], [ 12.603982152119205, 46.655737793992422 ], [ 12.619010345055178, 46.661112988573706 ], [ 12.631623077081255, 46.660397815197271 ], [ 12.634098696751508, 46.654333920244483 ], [ 12.642456312349966, 46.651934735141559 ], [ 12.648869680772421, 46.652504135006012 ], [ 12.65899732380681, 46.656491409096169 ], [ 12.686030678377271, 46.656036530829567 ], [ 12.716703565708077, 46.647572625957011 ], [ 12.73198089514063, 46.633812408853842 ], [ 12.726498343042836, 46.630533677746016 ], [ 12.711375123595555, 46.62555023567139 ], [ 12.706242115624503, 46.620776405263257 ], [ 12.704720969406571, 46.618395644763552 ], [ 12.707841350501878, 46.602029456886299 ], [ 12.687525346663378, 46.599862189086153 ], [ 12.674552120224265, 46.58519557594574 ], [ 12.666765895039413, 46.581724096247818 ], [ 12.656958999724599, 46.57279174047703 ], [ 12.646033160118884, 46.57403081051595 ], [ 12.643620686059181, 46.575809360750178 ], [ 12.636870726252521, 46.572027763227602 ], [ 12.620204872556116, 46.543769417758639 ], [ 12.619163995336317, 46.540035738410367 ], [ 12.621526143396203, 46.526487292912115 ], [ 12.624903127649286, 46.519971897857261 ], [ 12.628827710622621, 46.519132834941075 ], [ 12.631583851119226, 46.508896009303655 ], [ 12.63074306602017, 46.502619765996982 ], [ 12.642284175644647, 46.490530918080275 ], [ 12.653172673430197, 46.484811525353152 ], [ 12.662363382893748, 46.467967322060112 ], [ 12.654855411104915, 46.465457668825266 ], [ 12.649047723217054, 46.466564400696811 ], [ 12.642348616810224, 46.472331738431976 ], [ 12.620751490660869, 46.475367283325568 ], [ 12.610278641216315, 46.467616427370366 ], [ 12.601876261170865, 46.466189554863128 ], [ 12.592943224072693, 46.471398650499872 ], [ 12.568196843139308, 46.475715584780083 ], [ 12.541690381817142, 46.458435818774937 ], [ 12.536834397029811, 46.459721115641585 ], [ 12.530842140154945, 46.464933237344063 ], [ 12.527079683745871, 46.459464765888931 ], [ 12.528064326385911, 46.452843631307132 ], [ 12.524795346876767, 46.448573224035314 ], [ 12.516175496341893, 46.446696112136578 ], [ 12.504578172910229, 46.440014358188741 ], [ 12.492598629196568, 46.424414424720823 ], [ 12.498693635571808, 46.412197386034073 ], [ 12.495266953749203, 46.412014755192402 ], [ 12.489419047554092, 46.408737425680442 ], [ 12.469099845446083, 46.390037914520448 ], [ 12.46419342469069, 46.388391241742966 ], [ 12.455047618561473, 46.391668298963786 ], [ 12.462944816999364, 46.369261889195982 ], [ 12.442080297264674, 46.359732082999379 ], [ 12.428667181730418, 46.351594206130528 ], [ 12.418559968846193, 46.353445764603904 ], [ 12.421216206335037, 46.342576927051638 ], [ 12.409534676643512, 46.330634857542329 ], [ 12.374250515447661, 46.3288834353135 ], [ 12.35465666073827, 46.319680515212475 ], [ 12.355561079839205, 46.309360688097634 ], [ 12.351435608336335, 46.293800888626379 ], [ 12.329045257775453, 46.282789647245067 ], [ 12.322751019324803, 46.273123002046411 ], [ 12.320937971244497, 46.26890387281459 ], [ 12.323996836782024, 46.256153161817622 ], [ 12.329973442702327, 46.253865615599658 ], [ 12.341010247908169, 46.240199950828604 ], [ 12.343052703181741, 46.240557970567032 ], [ 12.35234418045718, 46.236287461885659 ], [ 12.355528111401229, 46.231156590343055 ], [ 12.372282460152359, 46.224016682263638 ], [ 12.401681084928581, 46.228996929654734 ], [ 12.408709239684564, 46.222340644156013 ], [ 12.408319589429096, 46.219498586559048 ], [ 12.40419522908125, 46.217426125798333 ], [ 12.400266482774322, 46.211256649158067 ], [ 12.40627135845606, 46.207274476076449 ], [ 12.432126858405359, 46.2092299242669 ], [ 12.44645393807402, 46.207766114841434 ], [ 12.44301957735215, 46.196073051249336 ], [ 12.446983279243128, 46.180341273702645 ], [ 12.456918898659969, 46.17064926429417 ], [ 12.489888356576385, 46.157227141768004 ], [ 12.495391875808595, 46.150497094493076 ], [ 12.498785885458883, 46.137002932338049 ], [ 12.485267474497205, 46.10652086361155 ], [ 12.472371936424084, 46.096018971685403 ], [ 12.442844319200809, 46.0842001004604 ], [ 12.438900369713467, 46.084588774716103 ], [ 12.435646276684066, 46.083124682450929 ], [ 12.427844863547278, 46.076320304978616 ], [ 12.424052347088315, 46.068205122717423 ], [ 12.417195777428999, 46.060501187688786 ], [ 12.409945596577341, 46.05914620025564 ], [ 12.40508172435354, 46.042737405885404 ], [ 12.398988628865595, 46.041423165504007 ], [ 12.415276300808278, 46.02685929497693 ], [ 12.418835237217142, 46.008635281436071 ], [ 12.426833129936156, 45.996393350605842 ], [ 12.425728890830033, 45.966677888058477 ], [ 12.422727126515948, 45.955777232317061 ], [ 12.425716509330073, 45.947622199205931 ], [ 12.434009765192036, 45.945268736860626 ], [ 12.441885375488896, 45.946673935716419 ], [ 12.4558271664445, 45.944456675703805 ], [ 12.462976987199147, 45.941834479674505 ], [ 12.466874615422428, 45.932003488746808 ], [ 12.482836801794804, 45.92572578567097 ], [ 12.500076344445594, 45.92540844360169 ], [ 12.506000810018978, 45.92271079557203 ], [ 12.507915120638351, 45.919586544225197 ], [ 12.505734012277127, 45.916049480223947 ], [ 12.509746478037888, 45.909439619048513 ], [ 12.515823670888226, 45.904097359295093 ], [ 12.520086025087947, 45.905362666136476 ], [ 12.523356640132286, 45.903481190230842 ], [ 12.518056204739233, 45.89985960785571 ], [ 12.508288139645586, 45.896983313691514 ], [ 12.532567969176924, 45.880266674884673 ], [ 12.535497411278088, 45.869271430048414 ], [ 12.529861288294454, 45.86360909819004 ], [ 12.534584057156266, 45.862308429221457 ], [ 12.544946575671414, 45.862560382757465 ], [ 12.549892628579341, 45.860520924309604 ], [ 12.557291889296751, 45.847284576407347 ], [ 12.553050713742635, 45.837582598686545 ], [ 12.554552936491586, 45.829357257684045 ], [ 12.559300544319671, 45.825924355515909 ], [ 12.562478628817038, 45.826337783555608 ], [ 12.564477568403275, 45.82921519285027 ], [ 12.568450601622478, 45.828106710609013 ], [ 12.582377466850717, 45.823294293610246 ], [ 12.587637104242651, 45.815307745061077 ], [ 12.593845456820858, 45.815179251005105 ], [ 12.595653892724336, 45.816823821814836 ], [ 12.594441988992379, 45.830766807842672 ], [ 12.605683013128445, 45.838247036935101 ], [ 12.611312037660705, 45.832669352345839 ], [ 12.623954355733495, 45.828809084266851 ], [ 12.631461786591801, 45.824763047455299 ], [ 12.637607060507955, 45.818052488330856 ], [ 12.647268088529513, 45.819996866689195 ], [ 12.652773320666096, 45.806398159987971 ], [ 12.649729091940131, 45.801875483608661 ], [ 12.658317715749449, 45.796829883343598 ], [ 12.661654791219366, 45.792433682489175 ], [ 12.669041996631202, 45.790886850924856 ], [ 12.675455581843009, 45.79271914825835 ], [ 12.690707788777596, 45.803640225665468 ], [ 12.712518717236504, 45.820803203329625 ], [ 12.729971817581676, 45.837256637219497 ], [ 12.742863984563344, 45.826619322016008 ], [ 12.749570607870506, 45.830615168158964 ], [ 12.768880757642764, 45.849837421233005 ], [ 12.779825625134865, 45.854442791895707 ], [ 12.789470005169848, 45.848845024798052 ], [ 12.80330700233444, 45.844965236946464 ], [ 12.803964849016435, 45.842358910605604 ], [ 12.799058133888311, 45.833166457231393 ], [ 12.799943860585376, 45.825733200401601 ], [ 12.801854979498673, 45.822897850436824 ], [ 12.80858355906615, 45.820175981093058 ], [ 12.818820796520006, 45.825011776732204 ], [ 12.818899160881783, 45.833729324792458 ], [ 12.821921597023817, 45.83570297690401 ], [ 12.829073096752072, 45.836363197721191 ], [ 12.837618076577797, 45.841313162342729 ], [ 12.836894766704873, 45.844975037479365 ], [ 12.853805318131508, 45.84973403761024 ], [ 12.861225759328953, 45.850614665725359 ], [ 12.867534052344109, 45.847061486376305 ], [ 12.874984067801815, 45.850344809945227 ], [ 12.876923444114482, 45.84277935760263 ], [ 12.86967133544591, 45.833757387973797 ], [ 12.876957561139704, 45.827854885337558 ], [ 12.893250313792709, 45.819689326364518 ], [ 12.902993425535309, 45.827694809790636 ], [ 12.907808991107903, 45.829106523279478 ], [ 12.91284241967908, 45.826468277879265 ], [ 12.920201501694624, 45.830919135314801 ], [ 12.929495523158936, 45.817351083562684 ], [ 12.958548525088483, 45.822502051643319 ], [ 12.95097690968983, 45.829214702471504 ], [ 12.951363871460003, 45.841473505318312 ], [ 12.955662802976294, 45.846332765584947 ], [ 12.961429600743742, 45.846871710330085 ], [ 12.966336546306055, 45.840784742785608 ], [ 12.979045768805639, 45.834041724327392 ], [ 12.97453213712234, 45.830776067229941 ], [ 12.975471297822789, 45.823411898066148 ], [ 12.981316988846073, 45.818671447236589 ], [ 12.986608337384551, 45.818357844538291 ], [ 12.993241765001622, 45.815014231809165 ], [ 12.991583473985298, 45.810279119954664 ], [ 12.988383154938994, 45.808739341333748 ], [ 12.98516342383971, 45.810526076505539 ], [ 12.983489472334142, 45.814891636115448 ], [ 12.977883379823059, 45.813719194802836 ], [ 12.974713010916272, 45.808046288332918 ], [ 12.980774364863191, 45.797483054139185 ], [ 12.986776657530871, 45.797469869806086 ], [ 12.989571345243819, 45.80147881840066 ], [ 12.991721975918235, 45.79781661067679 ], [ 12.987497392484851, 45.794989822489818 ], [ 12.978769296613265, 45.792746886965524 ], [ 12.977139289487319, 45.788001001939925 ], [ 12.988943270113847, 45.7762524510403 ], [ 13.006064031110101, 45.765908450257427 ], [ 13.005917850984082, 45.760675014945903 ], [ 13.001924014630687, 45.757251476077329 ], [ 13.001190728957033, 45.749287835335302 ], [ 13.006729544218254, 45.744785854695003 ], [ 13.015321927493991, 45.742008824543561 ], [ 13.016063352868045, 45.735918467585762 ], [ 13.007973434280858, 45.73103821340586 ], [ 13.008307473593321, 45.724892113610224 ], [ 13.012109044006433, 45.72361530323569 ], [ 13.015040469361873, 45.724459863016996 ], [ 13.016431979042306, 45.730614668728784 ], [ 13.026538853748511, 45.736820799525276 ], [ 13.029206182204417, 45.736167978538496 ], [ 13.030161680677315, 45.72526383616156 ], [ 13.038518535776415, 45.71723513812433 ], [ 13.040645015407014, 45.706025237142867 ], [ 13.039271661683925, 45.70119756721347 ], [ 13.036490234984157, 45.700915955579973 ], [ 13.036844276617437, 45.699384227086462 ], [ 13.044965057650836, 45.69382739285966 ], [ 13.049757293310718, 45.697022694411174 ], [ 13.053249676950086, 45.694515406426014 ], [ 13.050466729736616, 45.688552034030941 ], [ 13.048309072974156, 45.687275498122837 ], [ 13.044286422338102, 45.687588770135882 ], [ 13.043597270582952, 45.685483171103272 ], [ 13.055996848674603, 45.677682013869457 ], [ 13.059143681734588, 45.679479470523532 ], [ 13.062487122953245, 45.679172574259859 ], [ 13.066767989482791, 45.672343421553293 ], [ 13.061877843158996, 45.662917769779696 ], [ 13.063374083384822, 45.656770568955992 ], [ 13.06540795461418, 45.65563143474742 ], [ 13.075613865953772, 45.659276744409247 ], [ 13.083132311140554, 45.658054207127023 ], [ 13.084570920110586, 45.65657598816756 ], [ 13.083363388471168, 45.65031153842353 ], [ 13.093545599668087, 45.647721857496229 ], [ 13.102230410103285, 45.641494988803856 ], [ 13.100149549644399, 45.636813971164919 ], [ 13.093542622138747, 45.634669674722666 ], [ 13.063390589162323, 45.630963134203256 ], [ 13.017283759554655, 45.628745485910635 ], [ 12.976149062114802, 45.624887793614477 ], [ 12.940674983824731, 45.618041052030378 ], [ 12.917054971821436, 45.611630571641356 ], [ 12.91265017522406, 45.6141633781655 ], [ 12.906321797379613, 45.611611643563442 ], [ 12.886546406868296, 45.597300038401869 ], [ 12.797192614607232, 45.560901545692708 ], [ 12.759503982651724, 45.541491656463251 ], [ 12.729802125972105, 45.529258529154085 ], [ 12.696941664434439, 45.520211019209448 ], [ 12.644284296800183, 45.502849128084122 ], [ 12.581518344197654, 45.478506173058804 ], [ 12.552764232602893, 45.47065679606267 ], [ 12.518058617653736, 45.458742882080365 ], [ 12.467536365284223, 45.444773932546731 ], [ 12.448232973523071, 45.435342173893389 ], [ 12.435041492140963, 45.424784545735001 ], [ 12.436211910270176, 45.4225455239621 ], [ 12.427986605132894, 45.418507713294574 ], [ 12.412835014440351, 45.426447956045024 ], [ 12.401960499606124, 45.428667086094933 ], [ 12.390996663309767, 45.422944100509653 ], [ 12.378795204831404, 45.413890256846713 ], [ 12.360709047884551, 45.396020971720091 ], [ 12.334712541456343, 45.358375646769233 ], [ 12.33093065056519, 45.351007701508188 ], [ 12.330394350956855, 45.337170705533701 ], [ 12.34276032777186, 45.333777900122868 ], [ 12.335670501844884, 45.33129937135179 ], [ 12.330242615420829, 45.331279798343871 ], [ 12.332960829719724, 45.327013690366464 ], [ 12.32477313309928, 45.328772649499719 ], [ 12.317227630161439, 45.313486016342011 ], [ 12.304750820586642, 45.278559251750885 ], [ 12.298631370387449, 45.242746179998264 ], [ 12.300560129068765, 45.236936224199376 ], [ 12.304829298545663, 45.234754851760101 ], [ 12.314934347937486, 45.233699539039783 ], [ 12.313705088037688, 45.228521445972319 ], [ 12.304581172514169, 45.229227720339608 ], [ 12.302080014570469, 45.225079028842373 ], [ 12.300184544435233, 45.216559757304211 ], [ 12.301098946836731, 45.209540625938281 ], [ 12.308761619793033, 45.190495375546874 ], [ 12.319692133365928, 45.180986518272697 ], [ 12.33242293965535, 45.162772425274476 ], [ 12.334687621992318, 45.163779632388781 ], [ 12.32724708878847, 45.139902521587246 ] ] ] } }
]
}
